[
    {
        "Altitude(m)": 711651.3749677682,
        "Argument of Periapsis(deg)": 0.004556048474650827,
        "Eccentricity": 0.0,
        "Inclination(deg)": 45.0,
        "Latitude(deg)": -29.870706952966138,
        "Longitude(deg)": -45.12923017743387,
        "Mean Anomaly(deg)": -44.47761334100759,
        "RAAN(deg)": 89.99569922341671,
        "Satellite Name": "Constellation 1 415",
        "Satellite Number": 415,
        "Semi-Major Axis(m)": 7083131.272910544,
        "Time(s)": 76
    },
    {
        "Altitude(m)": 711637.6748050972,
        "Argument of Periapsis(deg)": 0.004615996480896233,
        "Eccentricity": 0.0,
        "Inclination(deg)": 45.0,
        "Latitude(deg)": -29.83537134356349,
        "Longitude(deg)": -45.07655831845649,
        "Mean Anomaly(deg)": -44.41691220075773,
        "RAAN(deg)": 89.99564263425115,
        "Satellite Name": "Constellation 1 415",
        "Satellite Number": 415,
        "Semi-Major Axis(m)": 7083131.272910544,
        "Time(s)": 77
    },
    {
        "Altitude(m)": 711623.9707961577,
        "Argument of Periapsis(deg)": 0.004675944487141638,
        "Eccentricity": 0.0,
        "Inclination(deg)": 45.0,
        "Latitude(deg)": -29.80001108379164,
        "Longitude(deg)": -45.02392627364816,
        "Mean Anomaly(deg)": -44.35621106050786,
        "RAAN(deg)": 89.99558604508557,
        "Satellite Name": "Constellation 1 415",
        "Satellite Number": 415,
        "Semi-Major Axis(m)": 7083131.272910544,
        "Time(s)": 78
    },
    {
        "Altitude(m)": 711610.2629889682,
        "Argument of Periapsis(deg)": 0.004735892493387044,
        "Eccentricity": 0.0,
        "Inclination(deg)": 45.0,
        "Latitude(deg)": -29.764626225101782,
        "Longitude(deg)": -44.97133398558581,
        "Mean Anomaly(deg)": -44.29550992025791,
        "RAAN(deg)": 89.99552945592,
        "Satellite Name": "Constellation 1 415",
        "Satellite Number": 415,
        "Semi-Major Axis(m)": 7083131.272910544,
        "Time(s)": 79
    },
    {
        "Altitude(m)": 711596.5514315506,
        "Argument of Periapsis(deg)": 0.004795840499632449,
        "Eccentricity": 0.0,
        "Inclination(deg)": 45.0,
        "Latitude(deg)": -29.72921681887378,
        "Longitude(deg)": -44.91878139679228,
        "Mean Anomaly(deg)": -44.234808780007995,
        "RAAN(deg)": 89.99547286675444,
        "Satellite Name": "Constellation 1 415",
        "Satellite Number": 415,
        "Semi-Major Axis(m)": 7083131.272910544,
        "Time(s)": 80
    },
    {
        "Altitude(m)": 711582.836171926,
        "Argument of Periapsis(deg)": 0.004855788505877855,
        "Eccentricity": 0.0,
        "Inclination(deg)": 45.0,
        "Latitude(deg)": -29.69378291641595,
        "Longitude(deg)": -44.86626844973639,
        "Mean Anomaly(deg)": -44.174107639758084,
        "RAAN(deg)": 89.99541627758887,
        "Satellite Name": "Constellation 1 415",
        "Satellite Number": 415,
        "Semi-Major Axis(m)": 7083131.272910544,
        "Time(s)": 81
    },
    {
        "Altitude(m)": 711569.1172581266,
        "Argument of Periapsis(deg)": 0.00491573651212326,
        "Eccentricity": 0.0,
        "Inclination(deg)": 45.0,
        "Latitude(deg)": -29.658324568965487,
        "Longitude(deg)": -44.813795254931144,
        "Mean Anomaly(deg)": -44.11340649950822,
        "RAAN(deg)": 89.99535968842329,
        "Satellite Name": "Constellation 1 415",
        "Satellite Number": 415,
        "Semi-Major Axis(m)": 7083131.272910544,
        "Time(s)": 82
    },
    {
        "Altitude(m)": 711555.3947381816,
        "Argument of Periapsis(deg)": 0.004975684518368666,
        "Eccentricity": 0.0,
        "Inclination(deg)": 45.0,
        "Latitude(deg)": -29.622841827687548,
        "Longitude(deg)": -44.76136141854543,
        "Mean Anomaly(deg)": -44.05270535925827,
        "RAAN(deg)": 89.99530309925774,
        "Satellite Name": "Constellation 1 415",
        "Satellite Number": 415,
        "Semi-Major Axis(m)": 7083131.272910544,
        "Time(s)": 83
    },
    {
        "Altitude(m)": 711541.6686601267,
        "Argument of Periapsis(deg)": 0.005035632524614072,
        "Eccentricity": 0.0,
        "Inclination(deg)": 45.0,
        "Latitude(deg)": -29.5873347436767,
        "Longitude(deg)": -44.70896705098812,
        "Mean Anomaly(deg)": -43.9920042190084,
        "RAAN(deg)": 89.99524651009217,
        "Satellite Name": "Constellation 1 415",
        "Satellite Number": 415,
        "Semi-Major Axis(m)": 7083131.272910544,
        "Time(s)": 84
    },
    {
        "Altitude(m)": 711527.9390720055,
        "Argument of Periapsis(deg)": 0.0050955805308594785,
        "Eccentricity": 0.0,
        "Inclination(deg)": 45.0,
        "Latitude(deg)": -29.551803367955948,
        "Longitude(deg)": -44.65661209451956,
        "Mean Anomaly(deg)": -43.931303078758546,
        "RAAN(deg)": 89.99518992092659,
        "Satellite Name": "Constellation 1 415",
        "Satellite Number": 415,
        "Semi-Major Axis(m)": 7083131.272910544,
        "Time(s)": 85
    },
    {
        "Altitude(m)": 711514.2060218502,
        "Argument of Periapsis(deg)": 0.005155528537104883,
        "Eccentricity": 0.0,
        "Inclination(deg)": 45.0,
        "Latitude(deg)": -29.51624775147707,
        "Longitude(deg)": -44.60429649134941,
        "Mean Anomaly(deg)": -43.870601938508635,
        "RAAN(deg)": 89.99513333176102,
        "Satellite Name": "Constellation 1 415",
        "Satellite Number": 415,
        "Semi-Major Axis(m)": 7083131.272910544,
        "Time(s)": 86
    },
    {
        "Altitude(m)": 711500.4695577098,
        "Argument of Periapsis(deg)": 0.0052154765433502885,
        "Eccentricity": 0.0,
        "Inclination(deg)": 45.0,
        "Latitude(deg)": -29.480667945120683,
        "Longitude(deg)": -44.552020183637566,
        "Mean Anomaly(deg)": -43.80990079825868,
        "RAAN(deg)": 89.99507674259546,
        "Satellite Name": "Constellation 1 415",
        "Satellite Number": 415,
        "Semi-Major Axis(m)": 7083131.272910544,
        "Time(s)": 87
    },
    {
        "Altitude(m)": 711486.7297276298,
        "Argument of Periapsis(deg)": 0.005275424549595694,
        "Eccentricity": 0.0,
        "Inclination(deg)": 45.0,
        "Latitude(deg)": -29.44506399969626,
        "Longitude(deg)": -44.49978311349476,
        "Mean Anomaly(deg)": -43.74919965800877,
        "RAAN(deg)": 89.99502015342988,
        "Satellite Name": "Constellation 1 415",
        "Satellite Number": 415,
        "Semi-Major Axis(m)": 7083131.272910544,
        "Time(s)": 88
    },
    {
        "Altitude(m)": 711472.9865796632,
        "Argument of Periapsis(deg)": 0.0053353725558411,
        "Eccentricity": 0.0,
        "Inclination(deg)": 45.0,
        "Latitude(deg)": -29.409435965942375,
        "Longitude(deg)": -44.44758539108012,
        "Mean Anomaly(deg)": -43.68849851775896,
        "RAAN(deg)": 89.99496356426431,
        "Satellite Name": "Constellation 1 415",
        "Satellite Number": 415,
        "Semi-Major Axis(m)": 7083131.272910544,
        "Time(s)": 89
    },
    {
        "Altitude(m)": 711459.2401618568,
        "Argument of Periapsis(deg)": 0.005395320562086505,
        "Eccentricity": 0.0,
        "Inclination(deg)": 45.0,
        "Latitude(deg)": -29.373783894525815,
        "Longitude(deg)": -44.395426622212916,
        "Mean Anomaly(deg)": -43.62779737750905,
        "RAAN(deg)": 89.99490697509873,
        "Satellite Name": "Constellation 1 415",
        "Satellite Number": 415,
        "Semi-Major Axis(m)": 7083131.272910544,
        "Time(s)": 90
    },
    {
        "Altitude(m)": 711445.4905222664,
        "Argument of Periapsis(deg)": 0.00545526856833191,
        "Eccentricity": 0.0,
        "Inclination(deg)": 45.0,
        "Latitude(deg)": -29.33810783604304,
        "Longitude(deg)": -44.343306916956735,
        "Mean Anomaly(deg)": -43.56709623725909,
        "RAAN(deg)": 89.99485038593318,
        "Satellite Name": "Constellation 1 415",
        "Satellite Number": 415,
        "Semi-Major Axis(m)": 7083131.272910544,
        "Time(s)": 91
    },
    {
        "Altitude(m)": 711431.737708941,
        "Argument of Periapsis(deg)": 0.005515216574577317,
        "Eccentricity": 0.0,
        "Inclination(deg)": 45.0,
        "Latitude(deg)": -29.3024078410194,
        "Longitude(deg)": -44.29122621723132,
        "Mean Anomaly(deg)": -43.50639509700923,
        "RAAN(deg)": 89.99479379676761,
        "Satellite Name": "Constellation 1 415",
        "Satellite Number": 415,
        "Semi-Major Axis(m)": 7083131.272910544,
        "Time(s)": 92
    },
    {
        "Altitude(m)": 711417.9817699448,
        "Argument of Periapsis(deg)": 0.005575164580822722,
        "Eccentricity": 0.0,
        "Inclination(deg)": 45.0,
        "Latitude(deg)": -29.26668395990917,
        "Longitude(deg)": -44.23918446490994,
        "Mean Anomaly(deg)": -43.44569395675937,
        "RAAN(deg)": 89.99473720760203,
        "Satellite Name": "Constellation 1 415",
        "Satellite Number": 415,
        "Semi-Major Axis(m)": 7083131.272910544,
        "Time(s)": 93
    },
    {
        "Altitude(m)": 711404.2227533285,
        "Argument of Periapsis(deg)": 0.005635112587068129,
        "Eccentricity": 0.0,
        "Inclination(deg)": 45.0,
        "Latitude(deg)": -29.23093624309575,
        "Longitude(deg)": -44.18718160182022,
        "Mean Anomaly(deg)": -43.38499281650945,
        "RAAN(deg)": 89.99468061843646,
        "Satellite Name": "Constellation 1 415",
        "Satellite Number": 415,
        "Semi-Major Axis(m)": 7083131.272910544,
        "Time(s)": 94
    }
]